NORAD_CAT_ID,OBJECT_NAME,OBJECT_TYPE,EPOCH,MEAN_MOTION,ECCENTRICITY,INCLINATION,RA_OF_ASC_NODE,ARG_OF_PERICENTER,MEAN_ANOMALY,BSTAR,MEAN_MOTION_DOT,MEAN_MOTION_DDOT,TLE_LINE0,TLE_LINE1,TLE_LINE2,SEMIMAJOR_AXIS,PERIOD,APOGEE,PERIGEE,DECAYED
51980.0,STARLINK-3649,PAYLOAD,2022-07-29 14:00:01,15.08852789,0.0002031,53.2134,200.8109,59.2267,56.5775,-0.0016721,-0.00026811,0.0,0 STARLINK-3649,1 51980U 22025AA  22210.58334491 -.00026811  00000-0 -16721-2 0  9997,2 51980  53.2134 200.8109 0002031  59.2267  56.5775 15.08852789 23014,6917.840999999999,95.437,541.111,538.3009999999998,0.0
51980.0,STARLINK-3649,PAYLOAD,2022-07-29 22:00:00,15.08827296,0.0001984,53.2137,199.3131,65.8604,61.5451,0.0019212,0.0003041,0.0,0 STARLINK-3649,1 51980U 22025AA  22210.91667824  .00030410  00000-0  19212-2 0  9999,2 51980  53.2137 199.3131 0001984  65.8604  61.5451 15.08827296  1308,6917.919,95.438,541.1569999999998,538.4119999999998,0.0
51980.0,STARLINK-3649,PAYLOAD,2022-07-30 06:00:00,15.08844245,0.0002136,53.2138,197.8184,61.0985,77.9014,-0.00088539,-0.00014354,0.0,0 STARLINK-3649,1 51980U 22025AA  22211.25001157 -.00014354  00000-0 -88539-3 0  9998,2 51980  53.2138 197.8184 0002136  61.0985  77.9014 15.08844245 23112,6917.8669999999975,95.437,541.21,538.255,0.0
51980.0,STARLINK-3649,PAYLOAD,2022-07-30 14:00:01,15.08858911,0.0002109999999999,53.2139,196.3214,59.9888,90.6021,-0.001894,-0.00030321,0.0,0 STARLINK-3649,1 51980U 22025AA  22211.58334491 -.00030321  00000-0 -18940-2 0  9994,2 51980  53.2139 196.3214 0002110  59.9888  90.6021 15.08858911  1303,6917.823,95.436,541.1469999999998,538.2280000000002,0.0
51980.0,STARLINK-3649,PAYLOAD,2022-07-30 20:00:01,15.08822191,0.0002028,53.2141,195.1978,64.6676,4.6367,0.0027879,0.0004434,0.0,0 STARLINK-3649,1 51980U 22025AA  22211.83334491  .00044340  00000-0  27879-2 0  9997,2 51980  53.2141 195.1978 0002028  64.6676   4.6367 15.08822191 23196,6917.935,95.439,541.203,538.3969999999998,0.0
51980.0,STARLINK-3649,PAYLOAD,2022-07-30 22:00:00,15.08836442,0.0002082,53.2143,194.8237,66.1081,96.0892,0.0016759,0.00026482,0.0,0 STARLINK-3649,1 51980U 22025AA  22211.91667824  .00026482  00000-0  16759-2 0  9997,2 51980  53.2143 194.8237 0002082  66.1081  96.0892 15.08836442  1300,6917.891,95.438,541.197,538.316,0.0
51980.0,STARLINK-3649,PAYLOAD,2022-07-31 14:00:01,15.08866707,0.000218,53.2146,191.8319,60.8123,124.5859,-0.0021320999999999,-0.00034086,0.0,0 STARLINK-3649,1 51980U 22025AA  22212.58334491 -.00034086  00000-0 -21321-2 0  9994,2 51980  53.2146 191.8319 0002180  60.8123 124.5859 15.08866707 23310,6917.799,95.436,541.172,538.156,0.0
51980.0,STARLINK-3649,PAYLOAD,2022-07-31 22:00:00,15.08851553,0.0002104,53.2151,190.3344,66.1192,130.8924,-0.0015325,-0.00024604,0.0,0 STARLINK-3649,1 51980U 22025AA  22212.91667824 -.00024604  00000-0 -15325-2 0  9992,2 51980  53.2151 190.3344 0002104  66.1192 130.8924 15.08851553  1300,6917.845,95.437,541.1659999999998,538.255,0.0
51980.0,STARLINK-3649,PAYLOAD,2022-08-01 12:00:00,15.08834764,0.0002189999999999,53.2152,187.7172,58.6015,68.6917,-0.00049644,-8.18e-05,0.0,0 STARLINK-3649,1 51980U 22025AA  22213.50001157 -.00008180  00000-0 -49644-3 0  9992,2 51980  53.2152 187.7172 0002190  58.6015  68.6917 15.08834764 23450,6917.896,95.438,541.276,538.246,0.0
51980.0,STARLINK-3649,PAYLOAD,2022-08-01 14:00:01,15.08846544,0.0002141,53.2153,187.3426,60.7032,159.4833,-0.0022531999999999,-0.00035977,0.0,0 STARLINK-3649,1 51980U 22025AA  22213.58334491 -.00035977  00000-0 -22532-2 0  9990,2 51980  53.2153 187.3426 0002141  60.7032 159.4833 15.08846544  1303,6917.86,95.437,541.207,538.244,0.0
51980.0,STARLINK-3649,PAYLOAD,2022-08-01 22:00:00,15.08828503,0.0002115,53.2157,185.8454,66.4849,165.2889,0.0012300999999999,0.00019337,0.0,0 STARLINK-3649,1 51980U 22025AA  22213.91667824  .00019337  00000-0  12301-2 0  9999,2 51980  53.2157 185.8454 0002115  66.4849 165.2889 15.08828503  1302,6917.916,95.438,541.244,538.317,0.0
51980.0,STARLINK-3649,PAYLOAD,2022-08-02 14:00:01,15.08854129,0.0002164,53.2156,182.8535,62.4526,192.4945,-0.0023451,-0.00037433,0.0,0 STARLINK-3649,1 51980U 22025AA  22214.58334491 -.00037433  00000-0 -23451-2 0  9991,2 51980  53.2156 182.8535 0002164  62.4526 192.4945 15.08854129 23616,6917.837,95.437,541.1990000000002,538.205,0.0
51980.0,STARLINK-3649,PAYLOAD,2022-08-03 04:00:00,15.08847795,0.0002237,53.2157,180.2356,63.4007,121.8438,-0.0010663,-0.00017223,0.0,0 STARLINK-3649,1 51980U 22025AA  22215.16667824 -.00017223  00000-0 -10663-2 0  9991,2 51980  53.2157 180.2356 0002237  63.4007 121.8438 15.08847795 23700,6917.857,95.437,541.269,538.174,0.0
51980.0,STARLINK-3649,PAYLOAD,2022-08-03 14:00:01,15.08861246,0.000217,53.2155,178.3644,64.7042,225.036,-0.0021516,-0.00034389,0.0,0 STARLINK-3649,1 51980U 22025AA  22215.58334491 -.00034389  00000-0 -21516-2 0  9999,2 51980  53.2155 178.3644 0002170  64.7042 225.0360 15.08861246  1305,6917.815,95.436,541.182,538.179,0.0
51980.0,STARLINK-3649,PAYLOAD,2022-08-03 20:00:01,15.08837605,0.0002110999999999,53.2154,177.2413,69.3884,139.0613,0.001621,0.00025603,0.0,0 STARLINK-3649,1 51980U 22025AA  22215.83334491  .00025603  00000-0  16210-2 0  9999,2 51980  53.2154 177.2413 0002111  69.3884 139.0613 15.08837605 23802,6917.888000000001,95.438,541.2130000000002,538.2919999999998,0.0
51980.0,STARLINK-3649,PAYLOAD,2022-08-03 22:00:01,15.08860284,0.0002114,53.2156,176.8674,70.0405,231.3653,-0.00095609,-0.00015481,0.0,0 STARLINK-3649,1 51980U 22025AA  22215.91668981 -.00015481  00000-0 -95609-3 0  9997,2 51980  53.2156 176.8674 0002114  70.0405 231.3653 15.08860284  1309,6917.818,95.436,541.146,538.221,0.0
51980.0,STARLINK-3649,PAYLOAD,2022-08-04 04:00:00,15.08847892,0.0002181,53.2152,175.7467,64.3479,155.7097,-0.0027543,-0.00043867,0.0,0 STARLINK-3649,1 51980U 22025AA  22216.16667824 -.00043867  00000-0 -27543-2 0  9990,2 51980  53.2152 175.7467 0002181  64.3479 155.7097 15.08847892 23859,6917.856,95.437,541.23,538.212,0.0
51980.0,STARLINK-3649,PAYLOAD,2022-08-04 14:00:01,15.08839524,0.0002086999999999,53.2149,173.8753,65.9948,258.5433,-0.0018036999999999,-0.0002887999999999,0.0,0 STARLINK-3649,1 51980U 22025AA  22216.58334491 -.00028880  00000-0 -18037-2 0  9993,2 51980  53.2149 173.8753 0002087  65.9948 258.5433 15.08839524 23911,6917.882,95.438,541.191,538.303,0.0
51980.0,STARLINK-3649,PAYLOAD,2022-08-04 22:00:00,15.08837595,0.0002089,53.2149,172.3785,71.1073,265.0104,0.00020847,3.031e-05,0.0,0 STARLINK-3649,1 51980U 22025AA  22216.91667824  .00003031  00000-0  20847-3 0  9991,2 51980  53.2149 172.3785 0002089  71.1073 265.0104 15.08837595  1303,6917.888000000001,95.438,541.198,538.308,0.0
51980.0,STARLINK-3649,PAYLOAD,2022-08-05 04:00:00,15.08832428,0.0002195,53.2146,171.2577,65.8533,188.9603,-0.00029449,-4.971e-05,0.0,0 STARLINK-3649,1 51980U 22025AA  22217.16667824 -.00004971  00000-0 -29449-3 0  9992,2 51980  53.2146 171.2577 0002195  65.8533 188.9603 15.08832428 24005,6917.904,95.438,541.2869999999998,538.25,0.0
51980.0,STARLINK-3649,PAYLOAD,2022-08-05 14:00:01,15.08845665,0.0002136,53.2143,169.386,68.2439,291.1151,-0.0013325,-0.00021436,0.0,0 STARLINK-3649,1 51980U 22025AA  22217.58335648 -.00021436  00000-0 -13325-2 0  9994,2 51980  53.2143 169.3860 0002136  68.2439 291.1151 15.08845665  1302,6917.863,95.437,541.206,538.25,0.0
51980.0,STARLINK-3649,PAYLOAD,2022-08-05 20:00:01,15.08831796,0.0002134999999999,53.2142,168.263,72.3612,205.697,0.0019587,0.00031016,0.0,0 STARLINK-3649,1 51980U 22025AA  22217.83335648  .00031016  00000-0  19587-2 0  9991,2 51980  53.2142 168.2630 0002135  72.3612 205.6970 15.08831796 24104,6917.905,95.438,541.247,538.293,0.0
51980.0,STARLINK-3649,PAYLOAD,2022-08-05 22:00:00,15.08851835,0.0002156,53.2144,167.8894,72.1247,298.7632,-0.00012354,-2.255e-05,0.0,0 STARLINK-3649,1 51980U 22025AA  22217.91667824 -.00002255  00000-0 -12354-3 0  9995,2 51980  53.2144 167.8894 0002156  72.1247 298.7632 15.08851835  1309,6917.844,95.437,541.201,538.2180000000002,0.0
51980.0,STARLINK-3649,PAYLOAD,2022-08-06 12:00:00,15.08877299,0.0002144,53.2139,165.2712,66.6933,234.4964,-0.005135,-0.00081178,0.0,0 STARLINK-3649,1 51980U 22025AA  22218.50001157 -.00081178  00000-0 -51350-2 0  9991,2 51980  53.2139 165.2712 0002144  66.6933 234.4964 15.08877299 24202,6917.766,95.435,541.115,538.148,0.0
51980.0,STARLINK-3649,PAYLOAD,2022-08-06 14:00:01,15.0885519,0.0002121999999999,53.2141,164.8966,68.8931,325.206,-0.0033309,-0.00052934,0.0,0 STARLINK-3649,1 51980U 22025AA  22218.58334491 -.00052934  00000-0 -33309-2 0  9991,2 51980  53.2141 164.8966 0002122  68.8931 325.2060 15.08855190  1307,6917.834,95.437,541.1669999999998,538.231,0.0
51980.0,STARLINK-3649,PAYLOAD,2022-08-06 20:00:01,15.0881926,0.0002105,53.2141,163.7736,72.1736,240.6255,0.0018769,0.00029693,0.0,0 STARLINK-3649,1 51980U 22025AA  22218.83334491  .00029693  00000-0  18769-2 0  9996,2 51980  53.2141 163.7736 0002105  72.1736 240.6255 15.08819260 24255,6917.944,95.439,541.265,538.3530000000002,0.0
51980.0,STARLINK-3649,PAYLOAD,2022-08-06 22:00:00,15.08840129,0.0002129,53.2142,163.4001,71.4835,334.2044,-0.00045942,-7.593e-05,0.0,0 STARLINK-3649,1 51980U 22025AA  22218.91667824 -.00007593  00000-0 -45942-3 0  9995,2 51980  53.2142 163.4001 0002129  71.4835 334.2044 15.08840129  1301,6917.88,95.438,541.2180000000002,538.2719999999998,0.0
51980.0,STARLINK-3649,PAYLOAD,2022-08-07 14:00:01,15.08839608,0.0002125,53.2144,160.4071,69.2838,359.5815,-0.0004822,-7.954e-05,0.0,0 STARLINK-3649,1 51980U 22025AA  22219.58334491 -.00007954  00000-0 -48220-3 0  9993,2 51980  53.2144 160.4071 0002125  69.2838 359.5815 15.08839608 24368,6917.882,95.438,541.217,538.2769999999998,0.0
51980.0,STARLINK-3649,PAYLOAD,2022-08-07 22:00:00,15.08859468,0.0002134999999999,53.2146,158.9107,71.2517,9.2069,-0.0029969,-0.00047695,0.0,0 STARLINK-3649,1 51980U 22025AA  22219.91667824 -.00047695  00000-0 -29969-2 0  9993,2 51980  53.2146 158.9107 0002135  71.2517   9.2069 15.08859468  1305,6917.821,95.436,541.163,538.2090000000002,0.0
